OBJECT_NAME,OBJECT_ID,EPOCH,MEAN_MOTION,ECCENTRICITY,INCLINATION,RA_OF_ASC_NODE,ARG_OF_PERICENTER,MEAN_ANOMALY,EPHEMERIS_TYPE,CLASSIFICATION_TYPE,NORAD_CAT_ID,ELEMENT_SET_NO,REV_AT_EPOCH,BSTAR,MEAN_MOTION_DOT,MEAN_MOTION_DDOT
TELSTAR 12V,2015-068A,2026-07-17T02:45:38.723328,1.00271083,.0002162,0.0179,51.2743,60.3474,209.7201,0,U,41036,999,3892,0,-.129E-5,0
ELEKTRO-L 2,2015-074A,2026-07-16T23:31:00.863040,1.00272049,.0000972,6.7669,70.1538,215.6867,347.2166,0,U,41105,999,3880,0,-.13E-5,0
COSMOS 2513,2015-075A,2026-07-16T18:50:06.053856,1.00268458,.000252,0.0623,102.7660,347.1668,207.4353,0,U,41121,999,3884,0,-.148E-5,0
EXPRESS-AMU1,2015-082A,2026-07-17T03:10:47.695872,1.00275958,.0002645,0.0165,51.3190,80.1277,247.3597,0,U,41191,999,3856,0,0,0
GAOFEN-4,2015-083A,2026-07-17T00:05:20.072256,1.00271753,.0004266,0.4325,83.7520,125.8784,192.2280,0,U,41194,999,3882,0,-.345E-5,0
BELINTERSAT-1,2016-001A,2026-07-17T03:15:09.778176,1.00273895,.0001737,0.0479,245.9140,187.9047,321.4372,0,U,41238,999,3853,0,.96E-6,0
IRNSS-1E,2016-003A,2026-07-13T01:01:03.714240,1.00278688,.00189772,33.2887,59.3748,176.6620,181.8769,0,U,41241,999,3833,0,-.321E-5,0
EUTELSAT 9B,2016-005A,2026-07-17T02:29:38.592096,1.00271471,.0001104,0.0414,64.8767,42.8205,233.6115,0,U,41310,999,3841,0,.51E-6,0
SES-9,2016-013A,2026-07-16T22:23:03.984000,1.00267769,.0001938,0.0157,338.8052,124.0255,275.9884,0,U,41380,999,3773,0,-.355E-5,0
EUTELSAT 65 WEST A,2016-014A,2026-07-17T00:03:50.910912,1.00270064,.0002165,0.0947,296.0440,181.6218,112.9160,0,U,41382,999,3782,0,-.286E-5,0
IRNSS-1F,2016-015A,2026-07-17T00:29:28.779072,1.00267230,.001771,5.4216,96.0938,179.9712,58.6234,0,U,41384,999,3796,0,.145E-5,0
BEIDOU-2 IGSO-6,2016-021A,2026-06-26T02:38:38.671584,1.00258926,.0057558,60.2385,37.9495,231.0163,137.2672,0,U,41434,999,3757,0,-.145E-5,0
IRNSS-1G,2016-027A,2026-07-16T13:56:19.092192,1.00270128,.0005963,5.2661,96.7944,11.7461,164.6245,0,U,41469,999,3747,0,-.347E-5,0
JCSAT-2B,2016-028A,2026-07-17T03:25:38.594784,1.00270054,.0000866,0.0183,48.9484,61.3997,30.0198,0,U,41471,999,3743,0,-.176E-5,0
THAICOM 8,2016-031A,2026-07-17T03:22:54.037344,1.00271757,.000297,0.0561,30.9981,42.7253,350.4467,0,U,41552,999,3701,0,-.131E-5,0
INTELSAT 31 (IS-31),2016-035A,2026-07-16T23:07:59.676096,1.00270188,.0001075,0.0045,295.7758,2.1655,248.7850,0,U,41581,999,3698,0,-.161E-5,0
BEIDOU-2 G7,2016-037A,2026-07-17T00:06:42.440832,1.00272485,.0005898,1.7921,69.5093,359.9036,337.6443,0,U,41586,999,718,0,-.364E-5,0
ABS-2A (MONGOLSAT-1),2016-038A,2026-07-17T01:39:06.785856,1.00270314,.0001391,0.0107,47.1759,13.7683,333.4129,0,U,41588,999,3700,0,-.94E-6,0
EUTELSAT 117 WEST B,2016-038B,2026-07-17T02:27:10.035936,1.00272820,.0000182,0.0028,168.9996,353.2490,52.4840,0,U,41589,999,3696,0,-.22E-6,0
BRISAT,2016-039A,2026-07-16T20:52:46.711776,1.00267961,.0001816,0.0159,26.6643,81.6156,290.1101,0,U,41591,999,3690,0,0,0
ECHOSTAR 18,2016-039B,2026-07-17T02:43:02.304768,1.00271935,.0001549,0.0175,52.2390,70.1451,151.9365,0,U,41592,999,3692,0,-.292E-5,0
MUOS-5,2016-041A,2026-07-17T02:30:47.190240,1.00272841,.0199581,2.1404,302.2610,260.5809,24.6516,0,U,41622,999,3738,0,-.153E-5,0
TIANTONG-1 1,2016-048A,2026-07-16T20:22:21.479808,1.00268261,.0005008,3.9055,43.6425,59.2784,238.6990,0,U,41725,999,3656,0,-.328E-5,0
JCSAT-16,2016-050A,2026-07-17T03:41:22.265088,1.00270427,.0000944,0.0187,49.8045,76.4511,8.0036,0,U,41729,999,3637,0,-.261E-5,0
USA 270,2016-052A,2026-07-14T10:51:22.391136,1.00267800,.0009408,4.2649,76.8388,101.7031,42.7683,0,U,41744,999,2840,0,-.362E-5,0
USA 271,2016-052B,2026-07-14T02:57:21.919968,1.00268559,.0011085,4.2370,76.9135,165.9764,191.3847,0,U,41745,999,2818,0,-.3E-5,0
INTELSAT 36 (IS-36),2016-053A,2026-07-16T23:54:43.590240,1.00269559,.0002414,0.0111,32.7323,308.7920,20.4524,0,U,41747,999,3625,0,-.34E-6,0
INSAT-3DR,2016-054A,2026-07-17T01:38:59.299296,1.00270905,.0010504,0.0746,88.8309,181.0019,123.7957,0,U,41752,999,3611,0,-.87E-6,0
GSAT-18,2016-060A,2026-07-17T01:38:59.299296,1.00271493,.0005289,0.0399,90.9234,348.4538,314.2233,0,U,41793,999,3582,0,-.87E-6,0
SKY MUSTER 2 (NBN1B),2016-060B,2026-07-17T03:41:37.240800,1.00270103,.0001628,0.0190,61.8849,60.8675,12.4266,0,U,41794,999,3582,0,0,0
HIMAWARI-9,2016-064A,2026-07-16T20:49:54.488064,1.00270933,.0001756,0.0313,261.7094,265.1821,221.0025,0,U,41836,999,3550,0,-.286E-5,0
SHIJIAN-17 (SJ-17),2016-065A,2026-07-16T19:22:02.989920,0.99866496,.0001933,5.8263,72.2450,43.9433,300.8940,0,U,41838,999,3549,0,.45E-6,0
