TELSTAR 12V             
1 41036U 15068A   26198.11503152 -.00000129  00000+0  00000+0 0  9999
2 41036   0.0179  51.2743 0002162  60.3474 209.7201  1.00271083 38925
ELEKTRO-L 2             
1 41105U 15074A   26197.97987110 -.00000130  00000+0  00000+0 0  9998
2 41105   6.7669  70.1538 0000972 215.6867 347.2166  1.00272049 38807
COSMOS 2513             
1 41121U 15075A   26197.78479229 -.00000148  00000+0  00000+0 0  9992
2 41121   0.0623 102.7660 0002520 347.1668 207.4353  1.00268458 38849
EXPRESS-AMU1            
1 41191U 15082A   26198.13249648  .00000000  00000+0  00000+0 0  9993
2 41191   0.0165  51.3190 0002645  80.1277 247.3597  1.00275958 38567
GAOFEN-4                
1 41194U 15083A   26198.00370454 -.00000345  00000+0  00000+0 0  9996
2 41194   0.4325  83.7520 0004266 125.8784 192.2280  1.00271753 38824
BELINTERSAT-1           
1 41238U 16001A   26198.13552984  .00000096  00000+0  00000+0 0  9992
2 41238   0.0479 245.9140 0001737 187.9047 321.4372  1.00273895 38535
IRNSS-1E                
1 41241U 16003A   26194.04240410 -.00000321  00000+0  00000+0 0  9994
2 41241  33.2887  59.3748 0018977 176.6620 181.8769  1.00278688 38338
EUTELSAT 9B             
1 41310U 16005A   26198.10391889  .00000051  00000+0  00000+0 0  9990
2 41310   0.0414  64.8767 0001104  42.8205 233.6115  1.00271471 38415
SES-9                   
1 41380U 16013A   26197.93268500 -.00000355  00000+0  00000+0 0  9997
2 41380   0.0157 338.8052 0001938 124.0255 275.9884  1.00267769 37731
EUTELSAT 65 WEST A      
1 41382U 16014A   26198.00267258 -.00000286  00000+0  00000+0 0  9991
2 41382   0.0947 296.0440 0002165 181.6218 112.9160  1.00270064 37826
IRNSS-1F                
1 41384U 16015A   26198.02047198  .00000145  00000+0  00000+0 0  9998
2 41384   5.4216  96.0938 0017710 179.9712  58.6234  1.00267230 37961
BEIDOU-2 IGSO-6         
1 41434U 16021A   26177.11016981 -.00000145  00000+0  00000+0 0  9995
2 41434  60.2385  37.9495 0057558 231.0163 137.2672  1.00258926 37578
IRNSS-1G                
1 41469U 16027A   26197.58077653 -.00000347  00000+0  00000+0 0  9999
2 41469   5.2661  96.7944 0005963  11.7461 164.6245  1.00270128 37478
JCSAT-2B                
1 41471U 16028A   26198.14280781 -.00000176  00000+0  00000+0 0  9994
2 41471   0.0183  48.9484 0000866  61.3997  30.0198  1.00270054 37430
THAICOM 8               
1 41552U 16031A   26198.14090321 -.00000131  00000+0  00000+0 0  9998
2 41552   0.0561  30.9981 0002970  42.7253 350.4467  1.00271757 37012
INTELSAT 31 (IS-31)     
1 41581U 16035A   26197.96388514 -.00000161  00000+0  00000+0 0  9990
2 41581   0.0045 295.7758 0001075   2.1655 248.7850  1.00270188 36982
BEIDOU-2 G7             
1 41586U 16037A   26198.00465788 -.00000364  00000+0  00000+0 0  9997
2 41586   1.7921  69.5093 0005898 359.9036 337.6443  1.00272485  7188
ABS-2A (MONGOLSAT-1)    
1 41588U 16038A   26198.06882854 -.00000094  00000+0  00000+0 0  9993
2 41588   0.0107  47.1759 0001391  13.7683 333.4129  1.00270314 37004
EUTELSAT 117 WEST B     
1 41589U 16038B   26198.10219949 -.00000022  00000+0  00000+0 0  9999
2 41589   0.0028 168.9996 0000182 353.2490  52.4840  1.00272820 36963
BRISAT                  
1 41591U 16039A   26197.86998509  .00000000  00000+0  00000+0 0  9996
2 41591   0.0159  26.6643 0001816  81.6156 290.1101  1.00267961 36901
ECHOSTAR 18             
1 41592U 16039B   26198.11322112 -.00000292  00000+0  00000+0 0  9991
2 41592   0.0175  52.2390 0001549  70.1451 151.9365  1.00271935 36922
MUOS-5                  
1 41622U 16041A   26198.10471285 -.00000153  00000+0  00000+0 0  9999
2 41622   2.1404 302.2610 0199581 260.5809  24.6516  1.00272841 37385
TIANTONG-1 1            
1 41725U 16048A   26197.84885972 -.00000328  00000+0  00000+0 0  9996
2 41725   3.9055  43.6425 0005008  59.2784 238.6990  1.00268261 36568
JCSAT-16                
1 41729U 16050A   26198.15372992 -.00000261  00000+0  00000+0 0  9997
2 41729   0.0187  49.8045 0000944  76.4511   8.0036  1.00270427 36371
USA 270                 
1 41744U 16052A   26195.45234249 -.00000362  00000+0  00000+0 0  9990
2 41744   4.2649  76.8388 0009408 101.7031  42.7683  1.00267800 28409
USA 271                 
1 41745U 16052B   26195.12317037 -.00000300  00000+0  00000+0 0  9994
2 41745   4.2370  76.9135 0011085 165.9764 191.3847  1.00268559 28181
INTELSAT 36 (IS-36)     
1 41747U 16053A   26197.99633785 -.00000034  00000+0  00000+0 0  9999
2 41747   0.0111  32.7323 0002414 308.7920  20.4524  1.00269559 36258
INSAT-3DR               
1 41752U 16054A   26198.06874189 -.00000087  00000+0  00000+0 0  9998
2 41752   0.0746  88.8309 0010504 181.0019 123.7957  1.00270905 36113
GSAT-18                 
1 41793U 16060A   26198.06874189 -.00000087  00000+0  00000+0 0  9990
2 41793   0.0399  90.9234 0005289 348.4538 314.2233  1.00271493 35826
SKY MUSTER 2 (NBN1B)    
1 41794U 16060B   26198.15390325  .00000000  00000+0  00000+0 0  9990
2 41794   0.0190  61.8849 0001628  60.8675  12.4266  1.00270103 35825
HIMAWARI-9              
1 41836U 16064A   26197.86799176 -.00000286  00000+0  00000+0 0  9992
2 41836   0.0313 261.7094 0001756 265.1821 221.0025  1.00270933 35504
SHIJIAN-17 (SJ-17)      
1 41838U 16065A   26197.80697905  .00000045  00000+0  00000+0 0  9998
2 41838   5.8263  72.2450 0001933  43.9433 300.8940  0.99866496 35494
